{
    "links": {
        "self": "http://www.neowsapp.com/rest/v1/neo/3578978?api_key=iIulBulltgU6a56xZRHN4H3l9WmuAYTsLGpBGhQ2"
    },
    "id": "3578978",
    "neo_reference_id": "3578978",
    "name": "(2011 SS26)",
    "designation": "2011 SS26",
    "nasa_jpl_url": "http://ssd.jpl.nasa.gov/sbdb.cgi?sstr=3578978",
    "absolute_magnitude_h": 24.5,
    "estimated_diameter": {
        "kilometers": {
            "estimated_diameter_min": 0.0334622374,
            "estimated_diameter_max": 0.0748238376
        },
        "meters": {
            "estimated_diameter_min": 33.4622374455,
            "estimated_diameter_max": 74.8238376074
        },
        "miles": {
            "estimated_diameter_min": 0.0207924639,
            "estimated_diameter_max": 0.0464933628
        },
        "feet": {
            "estimated_diameter_min": 109.7842471007,
            "estimated_diameter_max": 245.4850393757
        }
    },
    "is_potentially_hazardous_asteroid": false,
    "close_approach_data": [
        {
            "close_approach_date": "2011-09-06",
            "close_approach_date_full": "2011-Sep-06 10:25",
            "epoch_date_close_approach": 1315304700000,
            "relative_velocity": {
                "kilometers_per_second": "9.3598563504",
                "kilometers_per_hour": "33695.482861388",
                "miles_per_hour": "20937.0626701774"
            },
            "miss_distance": {
                "astronomical": "0.0131440219",
                "lunar": "5.1130245191",
                "kilometers": "1966317.679473353",
                "miles": "1221813.1497961514"
            },
            "orbiting_body": "Earth"
        }
    ],
    "orbital_data": {
        "orbit_id": "6",
        "orbit_determination_date": "2017-04-06 08:52:44",
        "first_observation_date": "2011-09-22",
        "last_observation_date": "2011-10-01",
        "data_arc_in_days": 9,
        "observations_used": 22,
        "orbit_uncertainty": "9",
        "minimum_orbit_intersection": ".00704434",
        "jupiter_tisserand_invariant": "4.059",
        "epoch_osculation": "2455828.5",
        "eccentricity": ".4576610966937588",
        "semi_major_axis": "1.711716365497791",
        "inclination": "2.646540982156491",
        "ascending_node_longitude": "353.7551674650039",
        "orbital_period": "817.9864907522165",
        "perihelion_distance": ".9283303764354168",
        "perihelion_argument": "309.6767174311615",
        "aphelion_distance": "2.495102354560164",
        "perihelion_time": "2455778.884493578654",
        "mean_anomaly": "21.83603581919688",
        "mean_motion": ".4401050678342447",
        "equinox": "J2000",
        "orbit_class": {
            "orbit_class_type": "APO",
            "orbit_class_description": "Near-Earth asteroid orbits which cross the Earth’s orbit similar to that of 1862 Apollo",
            "orbit_class_range": "a (semi-major axis) > 1.0 AU; q (perihelion) < 1.017 AU"
        }
    },
    "is_sentry_object": false
}